{"type": "FeatureCollection", "features": [ {"type": "Feature", "properties": {"norad_id": 29808, "name": "FENGYUN 1C DEB", "group": "fengyun-1c-debris", "lat": 64.77666449083813, "lon": 106.48582271361062, "alt_km": 476.55321686606294, "timestamp": "2025-12-14T03:55:53.058886+00:00", "meta": {"OBJECT_NAME": "FENGYUN 1C DEB", "OBJECT_ID": "1999-025DA", "EPOCH": "2025-12-13T07:28:17.975424", "MEAN_MOTION": 15.22737357, "ECCENTRICITY": 0.00196113, "INCLINATION": 99.013, "RA_OF_ASC_NODE": 265.7722, "ARG_OF_PERICENTER": 92.2486, "MEAN_ANOMALY": 29.6694, "EPHEMERIS_TYPE": 0, "CLASSIFICATION_TYPE": "U", "NORAD_CAT_ID": 29808, "ELEMENT_SET_NO": 999, "REV_AT_EPOCH": 98234, "BSTAR": 0.020089691, "MEAN_MOTION_DOT": 0.00503454, "MEAN_MOTION_DDOT": 0}, "tle": {"line1": "1 29808U 99025DA  25347.31131916  .00503454  00000+0  20090-1 0  9990", "line2": "2 29808  99.0130 265.7722 0019611  92.2486  29.6694 15.22737357982345"}}, "geometry": {"type": "Point", "coordinates": [106.48582271361062, 64.77666449083813]}}, {"type": "Feature", "properties": {"norad_id": 29809, "name": "FENGYUN 1C DEB", "group": "fengyun-1c-debris", "lat": 2.386944919398434, "lon": -48.602886554507684, "alt_km": 660.2274132128141, "timestamp": "2025-12-14T03:55:53.058896+00:00", "meta": {"OBJECT_NAME": "FENGYUN 1C DEB", "OBJECT_ID": "1999-025DB", "EPOCH": "2025-12-12T20:31:37.024032", "MEAN_MOTION": 14.46592318, "ECCENTRICITY": 0.01161106, "INCLINATION": 98.8601, "RA_OF_ASC_NODE": 310.4017, "ARG_OF_PERICENTER": 349.6659, "MEAN_ANOMALY": 41.9764, "EPHEMERIS_TYPE": 0, "CLASSIFICATION_TYPE": "U", "NORAD_CAT_ID": 29809, "ELEMENT_SET_NO": 999, "REV_AT_EPOCH": 99469, "BSTAR": 0.00061002991, "MEAN_MOTION_DOT": 2.339e-05, "MEAN_MOTION_DDOT": 0}, "tle": {"line1": "1 29809U 99025DB  25346.85528963  .00002339  00000+0  61003-3 0  9998", "line2": "2 29809  98.8601 310.4017 0116110 349.6659  41.9764 14.46592318994691"}}, "geometry": {"type": "Point", "coordinates": [-48.602886554507684, 2.386944919398434]}}, {"type": "Feature", "properties": {"norad_id": 29810, "name": "FENGYUN 1C DEB", "group": "fengyun-1c-debris", "lat": -63.10191444869387, "lon": 43.7116956859577, "alt_km": 792.6859558617653, "timestamp": "2025-12-14T03:55:53.058906+00:00", "meta": {"OBJECT_NAME": "FENGYUN 1C DEB", "OBJECT_ID": "1999-025DC", "EPOCH": "2025-12-13T01:28:53.383008", "MEAN_MOTION": 14.29130572, "ECCENTRICITY": 0.00669162, "INCLINATION": 99.2067, "RA_OF_ASC_NODE": 23.9026, "ARG_OF_PERICENTER": 18.0689, "MEAN_ANOMALY": 11.2357, "EPHEMERIS_TYPE": 0, "CLASSIFICATION_TYPE": "U", "NORAD_CAT_ID": 29810, "ELEMENT_SET_NO": 999, "REV_AT_EPOCH": 98382, "BSTAR": 0.00038365543, "MEAN_MOTION_DOT": 9.48e-06, "MEAN_MOTION_DDOT": 0}, "tle": {"line1": "1 29810U 99025DC  25347.06172897  .00000948  00000+0  38366-3 0  9995", "line2": "2 29810  99.2067  23.9026 0066916  18.0689  11.2357 14.29130572983820"}}, "geometry": {"type": "Point", "coordinates": [43.7116956859577, -63.10191444869387]}}, {"type": "Feature", "properties": {"norad_id": 29812, "name": "FENGYUN 1C DEB", "group": "fengyun-1c-debris", "lat": 36.43548910610347, "lon": 170.66111429448003, "alt_km": 852.7689035973553, "timestamp": "2025-12-14T03:55:53.058916+00:00", "meta": {"OBJECT_NAME": "FENGYUN 1C DEB", "OBJECT_ID": "1999-025DE", "EPOCH": "2025-12-12T19:17:10.850784", "MEAN_MOTION": 14.01988625, "ECCENTRICITY": 0.01439366, "INCLINATION": 98.3518, "RA_OF_ASC_NODE": 175.64, "ARG_OF_PERICENTER": 327.57, "MEAN_ANOMALY": 46.4606, "EPHEMERIS_TYPE": 0, "CLASSIFICATION_TYPE": "U", "NORAD_CAT_ID": 29812, "ELEMENT_SET_NO": 999, "REV_AT_EPOCH": 96173, "BSTAR": 0.0016000084, "MEAN_MOTION_DOT": 2.632e-05, "MEAN_MOTION_DDOT": 0}, "tle": {"line1": "1 29812U 99025DE  25346.80359781  .00002632  00000+0  16000-2 0  9999", "line2": "2 29812  98.3518 175.6400 0143936 327.5700  46.4606 14.01988625961737"}}, "geometry": {"type": "Point", "coordinates": [170.66111429448003, 36.43548910610347]}}, {"type": "Feature", "properties": {"norad_id": 29813, "name": "FENGYUN 1C DEB", "group": "fengyun-1c-debris", "lat": 61.99890031466056, "lon": -8.811643034115784, "alt_km": 862.9120477509005, "timestamp": "2025-12-14T03:55:53.058926+00:00", "meta": {"OBJECT_NAME": "FENGYUN 1C DEB", "OBJECT_ID": "1999-025DF", "EPOCH": "2025-12-12T07:25:40.190016", "MEAN_MOTION": 14.09450952, "ECCENTRICITY": 0.00118168, "INCLINATION": 98.7276, "RA_OF_ASC_NODE": 6.1828, "ARG_OF_PERICENTER": 223.3223, "MEAN_ANOMALY": 156.4777, "EPHEMERIS_TYPE": 0, "CLASSIFICATION_TYPE": "U", "NORAD_CAT_ID": 29813, "ELEMENT_SET_NO": 999, "REV_AT_EPOCH": 97254, "BSTAR": 6.5857807e-05, "MEAN_MOTION_DOT": 7.2e-07, "MEAN_MOTION_DDOT": 0}, "tle": {"line1": "1 29813U 99025DF  25346.30949294  .00000072  00000+0  65858-4 0  9992", "line2": "2 29813  98.7276   6.1828 0011816 223.3223 156.4777 14.09450952972546"}}, "geometry": {"type": "Point", "coordinates": [-8.811643034115784, 61.99890031466056]}}, {"type": "Feature", "properties": {"norad_id": 29815, "name": "FENGYUN 1C DEB", "group": "fengyun-1c-debris", "lat": -41.61032066711846, "lon": 3.8754495394151554, "alt_km": 816.5526844149044, "timestamp": "2025-12-14T03:55:53.058936+00:00", "meta": {"OBJECT_NAME": "FENGYUN 1C DEB", "OBJECT_ID": "1999-025DH", "EPOCH": "2025-12-13T00:14:18.221568", "MEAN_MOTION": 14.63717271, "ECCENTRICITY": 0.0183965, "INCLINATION": 98.0562, "RA_OF_ASC_NODE": 355.5202, "ARG_OF_PERICENTER": 134.3566, "MEAN_ANOMALY": 227.2878, "EPHEMERIS_TYPE": 0, "CLASSIFICATION_TYPE": "U", "NORAD_CAT_ID": 29815, "ELEMENT_SET_NO": 999, "REV_AT_EPOCH": 99859, "BSTAR": 0.00077828244, "MEAN_MOTION_DOT": 5.135e-05, "MEAN_MOTION_DDOT": 0}, "tle": {"line1": "1 29815U 99025DH  25347.00993312  .00005135  00000+0  77828-3 0  9996", "line2": "2 29815  98.0562 355.5202 0183965 134.3566 227.2878 14.63717271998594"}}, "geometry": {"type": "Point", "coordinates": [3.8754495394151554, -41.61032066711846]}}, {"type": "Feature", "properties": {"norad_id": 29816, "name": "FENGYUN 1C DEB", "group": "fengyun-1c-debris", "lat": 23.540299454525467, "lon": -155.71193091220113, "alt_km": 887.6427013701723, "timestamp": "2025-12-14T03:55:53.058946+00:00", "meta": {"OBJECT_NAME": "FENGYUN 1C DEB", "OBJECT_ID": "1999-025DJ", "EPOCH": "2025-12-13T01:57:22.411296", "MEAN_MOTION": 14.44307266, "ECCENTRICITY": 0.02377073, "INCLINATION": 98.9933, "RA_OF_ASC_NODE": 207.0991, "ARG_OF_PERICENTER": 176.1072, "MEAN_ANOMALY": 345.0396, "EPHEMERIS_TYPE": 0, "CLASSIFICATION_TYPE": "U", "NORAD_CAT_ID": 29816, "ELEMENT_SET_NO": 999, "REV_AT_EPOCH": 98192, "BSTAR": 0.0016265823, "MEAN_MOTION_DOT": 7.86e-05, "MEAN_MOTION_DDOT": 0}, "tle": {"line1": "1 29816U 99025DJ  25347.08150939  .00007860  00000+0  16266-2 0  9990", "line2": "2 29816  98.9933 207.0991 0237707 176.1072 345.0396 14.44307266981923"}}, "geometry": {"type": "Point", "coordinates": [-155.71193091220113, 23.540299454525467]}}, {"type": "Feature", "properties": {"norad_id": 29817, "name": "FENGYUN 1C DEB", "group": "fengyun-1c-debris", "lat": 8.587999903163231, "lon": 158.60653122857963, "alt_km": 854.8666222724951, "timestamp": "2025-12-14T03:55:53.058956+00:00", "meta": {"OBJECT_NAME": "FENGYUN 1C DEB", "OBJECT_ID": "1999-025DK", "EPOCH": "2025-12-13T05:21:22.181760", "MEAN_MOTION": 14.14253513, "ECCENTRICITY": 0.00122521, "INCLINATION": 98.5576, "RA_OF_ASC_NODE": 336.4025, "ARG_OF_PERICENTER": 14.3199, "MEAN_ANOMALY": 50.4565, "EPHEMERIS_TYPE": 0, "CLASSIFICATION_TYPE": "U", "NORAD_CAT_ID": 29817, "ELEMENT_SET_NO": 999, "REV_AT_EPOCH": 97402, "BSTAR": 0.00050036752, "MEAN_MOTION_DOT": 9.14e-06, "MEAN_MOTION_DDOT": 0}, "tle": {"line1": "1 29817U 99025DK  25347.22317340  .00000914  00000+0  50037-3 0  9996", "line2": "2 29817  98.5576 336.4025 0012252  14.3199  50.4565 14.14253513974027"}}, "geometry": {"type": "Point", "coordinates": [158.60653122857963, 8.587999903163231]}}, {"type": "Feature", "properties": {"norad_id": 29818, "name": "FENGYUN 1C DEB", "group": "fengyun-1c-debris", "lat": -35.62247086973663, "lon": 39.10799067602856, "alt_km": 965.5252325543925, "timestamp": "2025-12-14T03:55:53.058966+00:00", "meta": {"OBJECT_NAME": "FENGYUN 1C DEB", "OBJECT_ID": "1999-025DL", "EPOCH": "2025-12-13T06:55:49.357344", "MEAN_MOTION": 14.04501493, "ECCENTRICITY": 0.0115249, "INCLINATION": 98.721, "RA_OF_ASC_NODE": 224.5816, "ARG_OF_PERICENTER": 24.3254, "MEAN_ANOMALY": 90.0644, "EPHEMERIS_TYPE": 0, "CLASSIFICATION_TYPE": "U", "NORAD_CAT_ID": 29818, "ELEMENT_SET_NO": 999, "REV_AT_EPOCH": 96817, "BSTAR": 0.0002408984, "MEAN_MOTION_DOT": 3.66e-06, "MEAN_MOTION_DDOT": 0}, "tle": {"line1": "1 29818U 99025DL  25347.28876571  .00000366  00000+0  24090-3 0  9990", "line2": "2 29818  98.7210 224.5816 0115249  24.3254  90.0644 14.04501493968172"}}, "geometry": {"type": "Point", "coordinates": [39.10799067602856, -35.62247086973663]}}, {"type": "Feature", "properties": {"norad_id": 29819, "name": "FENGYUN 1C DEB", "group": "fengyun-1c-debris", "lat": -44.72283296298449, "lon": -19.398026131839057, "alt_km": 934.3564640722998, "timestamp": "2025-12-14T03:55:53.058976+00:00", "meta": {"OBJECT_NAME": "FENGYUN 1C DEB", "OBJECT_ID": "1999-025DM", "EPOCH": "2025-12-12T21:34:38.637984", "MEAN_MOTION": 14.02196402, "ECCENTRICITY": 0.01914846, "INCLINATION": 98.7322, "RA_OF_ASC_NODE": 330.6343, "ARG_OF_PERICENTER": 66.6332, "MEAN_ANOMALY": 349.3425, "EPHEMERIS_TYPE": 0, "CLASSIFICATION_TYPE": "U", "NORAD_CAT_ID": 29819, "ELEMENT_SET_NO": 999, "REV_AT_EPOCH": 96622, "BSTAR": 0.00061049665, "MEAN_MOTION_DOT": 1.057e-05, "MEAN_MOTION_DDOT": 0}, "tle": {"line1": "1 29819U 99025DM  25346.89905831  .00001057  00000+0  61050-3 0  9994", "line2": "2 29819  98.7322 330.6343 0191484  66.6332 349.3425 14.02196402966221"}}, "geometry": {"type": "Point", "coordinates": [-19.398026131839057, -44.72283296298449]}}]}